STARLINK-31275          
1 59197U 24045V   26068.78785110  .00000059  00000+0  11678-4 0  9995
2 59197  43.0053  92.2241 0001998 270.6780  89.3843 15.27567189113174
TEVEL2-3                
1 63218U 25052J   26068.64540225  .00020365  00000+0  69446-3 0  9991
2 63218  97.3994 324.7775 0004761 105.7353 254.4413 15.30377031 54855
